OBJECT_NAME,OBJECT_ID,EPOCH,MEAN_MOTION,ECCENTRICITY,INCLINATION,RA_OF_ASC_NODE,ARG_OF_PERICENTER,MEAN_ANOMALY,EPHEMERIS_TYPE,CLASSIFICATION_TYPE,NORAD_CAT_ID,ELEMENT_SET_NO,REV_AT_EPOCH,BSTAR,MEAN_MOTION_DOT,MEAN_MOTION_DDOT
UMBRA-09,2024-149CB,2026-06-25T12:05:56.772384,15.18279741,.00010994,97.6978,263.8526,246.8194,113.2924,0,U,60541,999,10198,.11293622E-2,.23133E-3,0
QPS-SAR-8 (AMATERU-IV),2024-149CC,2026-06-25T10:37:22.270368,15.04203354,.00042298,97.6656,255.5227,89.8225,270.3485,0,U,60542,999,10151,.4948401E-3,.6816E-4,0
ARCTIC WEATHER SATELLITE,2024-149CD,2026-06-25T11:34:17.272704,14.89794297,.00036721,97.6800,246.7107,88.3831,271.7808,0,U,60543,999,10053,.9372612E-4,.846E-5,0
CAPELLA-15 (ACADIA-5),2024-149CE,2026-06-24T03:52:23.378016,14.92400032,.00048513,97.6776,247.8919,59.7072,300.4627,0,U,60544,999,10089,.39255481E-3,.3965E-4,0
HAWK-10B,2024-149CF,2026-06-25T04:37:57.499968,14.96534084,.00065244,97.6811,251.3142,71.2407,288.9522,0,U,60545,999,10118,.99780972E-4,.1077E-4,0
ICEYE-X39,2024-149CG,2026-06-25T11:35:03.653952,14.99941178,.00061834,97.6763,253.3931,97.4871,262.7055,0,U,60546,999,10136,.29932788E-3,.3659E-4,0
UMBRA-10,2024-149CH,2026-06-25T12:05:18.452256,15.18274249,.00003957,97.6980,263.8806,140.9142,219.2120,0,U,60547,999,10199,.10480002E-2,.21453E-3,0
ICEYE-X33,2024-149CJ,2026-06-25T04:03:51.142752,15.00928062,.00019867,97.7305,255.2669,81.1800,278.9649,0,U,60548,999,10140,.38088973E-3,.4793E-4,0
ICEYE-X40,2024-149CK,2026-06-25T10:50:59.782848,14.97965748,.00059175,97.6815,252.8156,57.7899,302.3896,0,U,60549,999,10131,.89646579E-4,.1E-4,0
SATELIOT_1,2024-149CL,2026-06-25T12:13:26.461920,14.98104473,.00080912,97.6760,252.2695,55.3221,304.8763,0,U,60550,999,10131,.15701727E-3,.1802E-4,0
BRO-14,2024-149CM,2026-06-25T03:41:31.902144,14.96193544,.0008158,97.6872,251.7883,76.4115,283.8015,0,U,60551,999,10118,.14678538E-3,.1598E-4,0
SATELIOT_3,2024-149CN,2026-06-25T11:38:42.822240,14.98083883,.00061032,97.6816,253.0436,68.1577,292.0295,0,U,60552,999,10132,.19959537E-3,.2304E-4,0
BRO-15,2024-149CP,2026-06-25T03:16:21.810720,14.96174008,.00091359,97.6800,251.3649,66.4680,293.7501,0,U,60553,999,10119,.1889658E-3,.2073E-4,0
UM5-RIBAT,2024-149CQ,2026-06-25T11:18:41.042304,15.01116875,.00029131,97.6629,254.1598,48.7342,311.4133,0,U,60554,999,10143,.26074267E-3,.3279E-4,0
UM5-EOSAT,2024-149CR,2026-06-25T04:02:45.569472,15.01590561,.00090579,97.6737,254.8114,90.9961,269.2301,0,U,60555,999,10141,.34315498E-3,.4393E-4,0
LASARSAT,2024-247Q,2026-06-25T12:02:58.123968,15.46824718,.00073022,44.9731,215.4755,21.1141,339.0049,0,U,62391,999,8460,.73141065E-3,.37392E-3,0
CROCUBE,2024-247T,2026-06-24T09:26:02.551776,15.48681185,.00072263,44.9701,218.9251,18.8099,341.3058,0,U,62394,999,8446,.56516968E-3,.30725E-3,0
TEVEL2-4,2025-052D,2026-06-25T04:50:37.476960,15.34868529,.00049239,97.3900,72.6073,88.3722,271.8086,0,U,63213,999,7134,.6683709E-3,.22567E-3,0
TEVEL2-5,2025-052E,2026-06-24T10:34:45.401664,15.34655456,.00048908,97.3897,71.7905,91.0395,269.1409,0,U,63214,999,7122,.49860982E-3,.16688E-3,0
TEVEL2-6,2025-052F,2026-06-24T10:52:45.082848,15.34620549,.0004713,97.3903,71.7876,91.5170,268.6613,0,U,63215,999,7122,.50673189E-3,.16943E-3,0
TEVEL2-1,2025-052H,2026-06-24T05:22:29.921088,15.34073550,.00049566,97.3870,71.1740,99.7997,260.3806,0,U,63217,999,7117,.56391833E-3,.18544E-3,0
TEVEL2-3,2025-052J,2026-06-25T12:32:53.069280,15.34185056,.00048604,97.3879,72.4962,97.9247,262.2548,0,U,63218,999,7137,.69302448E-3,.22901E-3,0
TEVEL2-2,2025-052K,2026-06-25T11:07:29.716032,15.34132985,.0005023,97.3875,72.4167,98.1583,262.0230,0,U,63219,999,7136,.66880812E-3,.2206E-3,0
TEVEL2-9,2025-052AD,2026-06-25T12:24:29.975040,15.32134443,.00082858,97.3939,71.8272,108.4193,251.7951,0,U,63237,999,7130,.66309767E-3,.20548E-3,0
TEVEL2-7,2025-052AE,2026-06-25T11:51:40.042080,15.31832476,.00083821,97.3941,71.7171,108.6709,251.5443,0,U,63238,999,7129,.64363543E-3,.19754E-3,0
TEVEL2-8,2025-052AF,2026-06-25T12:03:40.075488,15.31817994,.00083891,97.3938,71.7020,109.3635,250.8514,0,U,63239,999,7129,.65814876E-3,.20193E-3,0
FORESAIL-1 PRIME,2025-276DS,2026-06-25T03:59:44.374848,15.18766994,.00039274,97.4202,249.2913,87.1697,272.9986,0,U,66778,999,3161,.25842125E-3,.5305E-4,0
