UMBRA-09                
1 60541U 24149CB  26176.50412931  .00023133  00000+0  11294-2 0  9993
2 60541  97.6978 263.8526 0001099 246.8194 113.2924 15.18279741101985
QPS-SAR-8 (AMATERU-IV)  
1 60542U 24149CC  26176.44261887  .00006816  00000+0  49484-3 0  9991
2 60542  97.6656 255.5227 0004229  89.8225 270.3485 15.04203354101511
ARCTIC WEATHER SATELLITE
1 60543U 24149CD  26176.48214436  .00000846  00000+0  93726-4 0  9990
2 60543  97.6800 246.7107 0003672  88.3831 271.7808 14.89794297100538
CAPELLA-15 (ACADIA-5)   
1 60544U 24149CE  26175.16138169  .00003965  00000+0  39255-3 0  9994
2 60544  97.6776 247.8919 0004851  59.7072 300.4627 14.92400032100896
HAWK-10B                
1 60545U 24149CF  26176.19302662  .00001077  00000+0  99781-4 0  9993
2 60545  97.6811 251.3142 0006524  71.2407 288.9522 14.96534084101181
ICEYE-X39               
1 60546U 24149CG  26176.48268118  .00003659  00000+0  29933-3 0  9992
2 60546  97.6763 253.3931 0006183  97.4871 262.7055 14.99941178101362
UMBRA-10                
1 60547U 24149CH  26176.50368579  .00021453  00000+0  10480-2 0  9996
2 60547  97.6980 263.8806 0000395 140.9142 219.2120 15.18274249101994
ICEYE-X33               
1 60548U 24149CJ  26176.16934193  .00004793  00000+0  38089-3 0  9994
2 60548  97.7305 255.2669 0001986  81.1800 278.9649 15.00928062101407
ICEYE-X40               
1 60549U 24149CK  26176.45208082  .00001000  00000+0  89647-4 0  9993
2 60549  97.6815 252.8156 0005917  57.7899 302.3896 14.97965748101315
SATELIOT_1              
1 60550U 24149CL  26176.50933405  .00001802  00000+0  15702-3 0  9995
2 60550  97.6760 252.2695 0008091  55.3221 304.8763 14.98104473101318
BRO-14                  
1 60551U 24149CM  26176.15384146  .00001598  00000+0  14679-3 0  9993
2 60551  97.6872 251.7883 0008158  76.4115 283.8015 14.96193544101182
SATELIOT_3              
1 60552U 24149CN  26176.48521785  .00002304  00000+0  19960-3 0  9996
2 60552  97.6816 253.0436 0006103  68.1577 292.0295 14.98083883101322
BRO-15                  
1 60553U 24149CP  26176.13636355  .00002073  00000+0  18897-3 0  9990
2 60553  97.6800 251.3649 0009135  66.4680 293.7501 14.96174008101198
UM5-RIBAT               
1 60554U 24149CQ  26176.47130836  .00003279  00000+0  26074-3 0  9996
2 60554  97.6629 254.1598 0002913  48.7342 311.4133 15.01116875101438
UM5-EOSAT               
1 60555U 24149CR  26176.16858298  .00004393  00000+0  34315-3 0  9997
2 60555  97.6737 254.8114 0009057  90.9961 269.2301 15.01590561101415
LASARSAT                
1 62391U 24247Q   26176.50206162  .00037392  00000+0  73141-3 0  9996
2 62391  44.9731 215.4755 0007302  21.1141 339.0049 15.46824718 84604
CROCUBE                 
1 62394U 24247T   26175.39308509  .00030725  00000+0  56517-3 0  9994
2 62394  44.9701 218.9251 0007226  18.8099 341.3058 15.48681185 84464
TEVEL2-4                
1 63213U 25052D   26176.20182265  .00022567  00000+0  66837-3 0  9991
2 63213  97.3900  72.6073 0004923  88.3722 271.8086 15.34868529 71346
TEVEL2-5                
1 63214U 25052E   26175.44080326  .00016688  00000+0  49861-3 0  9997
2 63214  97.3897  71.7905 0004890  91.0395 269.1409 15.34655456 71225
TEVEL2-6                
1 63215U 25052F   26175.45329957  .00016943  00000+0  50673-3 0  9992
2 63215  97.3903  71.7876 0004713  91.5170 268.6613 15.34620549 71227
TEVEL2-1                
1 63217U 25052H   26175.22395742  .00018544  00000+0  56392-3 0  9997
2 63217  97.3870  71.1740 0004956  99.7997 260.3806 15.34073550 71173
TEVEL2-3                
1 63218U 25052J   26176.52283645  .00022901  00000+0  69302-3 0  9997
2 63218  97.3879  72.4962 0004860  97.9247 262.2548 15.34185056 71376
TEVEL2-2                
1 63219U 25052K   26176.46353838  .00022060  00000+0  66881-3 0  9998
2 63219  97.3875  72.4167 0005023  98.1583 262.0230 15.34132985 71366
TEVEL2-9                
1 63237U 25052AD  26176.51701360  .00020548  00000+0  66310-3 0  9997
2 63237  97.3939  71.8272 0008285 108.4193 251.7951 15.32134443 71300
TEVEL2-7                
1 63238U 25052AE  26176.49421345  .00019754  00000+0  64364-3 0  9991
2 63238  97.3941  71.7171 0008382 108.6709 251.5443 15.31832476 71296
TEVEL2-8                
1 63239U 25052AF  26176.50254717  .00020193  00000+0  65815-3 0  9992
2 63239  97.3938  71.7020 0008389 109.3635 250.8514 15.31817994 71298
FORESAIL-1 PRIME        
1 66778U 25276DS  26176.16648582  .00005305  00000+0  25842-3 0  9994
2 66778  97.4202 249.2913 0003927  87.1697 272.9986 15.18766994 31619
